start=new Date('2022-03-12T00:00:00.000Z').valueOf();
sats=[{"GP_ID":"198518813","CENTER_NAME":"EARTH","TLE_LINE2":"2 46574  53.0542 230.6838 0001326  79.0769 281.0369 15.06404833 79837","PERIOD":"95.592","BSTAR":"0.00003710000000","APOAPSIS":"548.117","OBJECT_ID":"2020-070AU","OBJECT_NAME":"STARLINK-1660","FILE":"3355378","MEAN_ANOMALY":"281.0369","INCLINATION":"53.0542","REF_FRAME":"TEME","RA_OF_ASC_NODE":"230.6838","SITE":"AFETR","MEAN_MOTION_DOT":"0.00000271","LAUNCH_DATE":"2020-10-06","SEMIMAJOR_AXIS":"6925.334","PERIAPSIS":"546.280","TLE_LINE1":"1 46574U 20070AU  22070.83273752  .00000271  00000-0  37100-4 0  9998","MEAN_MOTION":"15.06404833","TIME_SYSTEM":"UTC","ARG_OF_PERICENTER":"79.0769","COUNTRY_CODE":"US","NORAD_CAT_ID":"46574","EPOCH":"2022-03-11T19:59:08.521728","EPHEMERIS_TYPE":"0","DECAY_DATE":null,"MEAN_MOTION_DDOT":"0.0000000000000","REV_AT_EPOCH":"7983","MEAN_ELEMENT_THEORY":"SGP4","RCS_SIZE":"LARGE","ECCENTRICITY":"0.00013260","OBJECT_TYPE":"PAYLOAD","ELEMENT_SET_NO":"999","CLASSIFICATION_TYPE":"U"},{"LAUNCH_DATE":"2020-10-06","MEAN_MOTION_DOT":"0.00003194","SEMIMAJOR_AXIS":"6925.310","PERIAPSIS":"546.208","MEAN_MOTION":"15.06412739","TLE_LINE1":"1 46575U 20070AV  22070.75579468  .00003194  00000-0  23311-3 0  9998","APOAPSIS":"548.141","BSTAR":"0.00023311000000","TLE_LINE2":"2 46575  53.0567 205.9961 0001395  72.8785 287.2357 15.06412739 80169","PERIOD":"95.591","CENTER_NAME":"EARTH","GP_ID":"198519065","MEAN_ANOMALY":"287.2357","FILE":"3355378","OBJECT_NAME":"STARLINK-1675","OBJECT_ID":"2020-070AV","RA_OF_ASC_NODE":"205.9961","REF_FRAME":"TEME","INCLINATION":"53.0567","SITE":"AFETR","REV_AT_EPOCH":"8016","MEAN_MOTION_DDOT":"0.0000000000000","MEAN_ELEMENT_THEORY":"SGP4","RCS_SIZE":"LARGE","OBJECT_TYPE":"PAYLOAD","ECCENTRICITY":"0.00013950","CLASSIFICATION_TYPE":"U","ELEMENT_SET_NO":"999","NORAD_CAT_ID":"46575","COUNTRY_CODE":"US","TIME_SYSTEM":"UTC","ARG_OF_PERICENTER":"72.8785","EPHEMERIS_TYPE":"0","EPOCH":"2022-03-11T18:08:20.660352","DECAY_DATE":null},{"APOAPSIS":"548.334","TLE_LINE2":"2 46576  53.0527 231.0048 0001707  63.8644 296.2521 15.06420000 79827","BSTAR":"0.00073316000000","PERIOD":"95.591","CENTER_NAME":"EARTH","GP_ID":"198519815","MEAN_ANOMALY":"296.2521","FILE":"3355378","OBJECT_NAME":"STARLINK-1677","OBJECT_ID":"2020-070AW","REF_FRAME":"TEME","RA_OF_ASC_NODE":"231.0048","INCLINATION":"53.0527","SITE":"AFETR","LAUNCH_DATE":"2020-10-06","MEAN_MOTION_DOT":"0.00010662","SEMIMAJOR_AXIS":"6925.287","PERIAPSIS":"545.970","MEAN_MOTION":"15.06420000","TLE_LINE1":"1 46576U 20070AW  22070.75902244  .00010662  00000-0  73316-3 0  9999","NORAD_CAT_ID":"46576","COUNTRY_CODE":"US","TIME_SYSTEM":"UTC","ARG_OF_PERICENTER":"63.8644","EPHEMERIS_TYPE":"0","EPOCH":"2022-03-11T18:12:59.538816","DECAY_DATE":null,"REV_AT_EPOCH":"7982","MEAN_MOTION_DDOT":"0.0000000000000","RCS_SIZE":"LARGE","MEAN_ELEMENT_THEORY":"SGP4","OBJECT_TYPE":"PAYLOAD","ECCENTRICITY":"0.00017070","CLASSIFICATION_TYPE":"U","ELEMENT_SET_NO":"999"},{"SITE":"AFETR","RA_OF_ASC_NODE":"231.1858","REF_FRAME":"TEME","INCLINATION":"53.0549","OBJECT_ID":"2020-070AX","MEAN_ANOMALY":"290.2445","OBJECT_NAME":"STARLINK-1682","FILE":"3355378","TLE_LINE2":"2 46577  53.0549 231.1858 0001379  69.8692 290.2445 15.06403496 79814","PERIOD":"95.592","BSTAR":"0.00014542000000","GP_ID":"198518064","CENTER_NAME":"EARTH","APOAPSIS":"548.158","TLE_LINE1":"1 46577U 20070AX  22070.72216287  .00001885  00000-0  14542-3 0  9995","MEAN_MOTION":"15.06403496","PERIAPSIS":"546.248","SEMIMAJOR_AXIS":"6925.338","LAUNCH_DATE":"2020-10-06","MEAN_MOTION_DOT":"0.00001885","DECAY_DATE":null,"EPOCH":"2022-03-11T17:19:54.871968","EPHEMERIS_TYPE":"0","COUNTRY_CODE":"US","ARG_OF_PERICENTER":"69.8692","TIME_SYSTEM":"UTC","NORAD_CAT_ID":"46577","ELEMENT_SET_NO":"999","CLASSIFICATION_TYPE":"U","ECCENTRICITY":"0.00013790","OBJECT_TYPE":"PAYLOAD","RCS_SIZE":"LARGE","MEAN_ELEMENT_THEORY":"SGP4","MEAN_MOTION_DDOT":"0.0000000000000","REV_AT_EPOCH":"7981"},{"MEAN_MOTION":"15.06408706","TLE_LINE1":"1 46578U 20070AY  22070.83133628  .00002982  00000-0  21893-3 0  9991","MEAN_MOTION_DOT":"0.00002982","LAUNCH_DATE":"2020-10-06","PERIAPSIS":"546.092","SEMIMAJOR_AXIS":"6925.322","INCLINATION":"53.0534","REF_FRAME":"TEME","RA_OF_ASC_NODE":"215.6956","SITE":"AFETR","CENTER_NAME":"EARTH","GP_ID":"198518314","PERIOD":"95.592","TLE_LINE2":"2 46578  53.0534 215.6956 0001581  71.8594 288.2567 15.06408706 80042","BSTAR":"0.00021893000000","APOAPSIS":"548.282","OBJECT_ID":"2020-070AY","FILE":"3355378","OBJECT_NAME":"STARLINK-1683","MEAN_ANOMALY":"288.2567","ECCENTRICITY":"0.00015810","OBJECT_TYPE":"PAYLOAD","ELEMENT_SET_NO":"999","CLASSIFICATION_TYPE":"U","MEAN_MOTION_DDOT":"0.0000000000000","REV_AT_EPOCH":"8004","RCS_SIZE":"LARGE","MEAN_ELEMENT_THEORY":"SGP4","EPOCH":"2022-03-11T19:57:07.454592","EPHEMERIS_TYPE":"0","DECAY_DATE":null,"ARG_OF_PERICENTER":"71.8594","TIME_SYSTEM":"UTC","COUNTRY_CODE":"US","NORAD_CAT_ID":"46578"},{"EPHEMERIS_TYPE":"0","EPOCH":"2022-03-11T20:09:45.785664","DECAY_DATE":null,"NORAD_CAT_ID":"46579","COUNTRY_CODE":"US","TIME_SYSTEM":"UTC","ARG_OF_PERICENTER":"81.2325","OBJECT_TYPE":"PAYLOAD","ECCENTRICITY":"0.00014150","CLASSIFICATION_TYPE":"U","ELEMENT_SET_NO":"999","REV_AT_EPOCH":"7983","MEAN_MOTION_DDOT":"0.0000000000000","RCS_SIZE":"LARGE","MEAN_ELEMENT_THEORY":"SGP4","RA_OF_ASC_NODE":"230.6475","REF_FRAME":"TEME","INCLINATION":"53.0524","SITE":"AFETR","APOAPSIS":"548.179","TLE_LINE2":"2 46579  53.0524 230.6475 0001415  81.2325 278.8824 15.06404812 79838","PERIOD":"95.592","BSTAR":"0.00012098000000","GP_ID":"198519565","CENTER_NAME":"EARTH","MEAN_ANOMALY":"278.8824","FILE":"3355378","OBJECT_NAME":"STARLINK-1705","OBJECT_ID":"2020-070AZ","MEAN_MOTION":"15.06404812","TLE_LINE1":"1 46579U 20070AZ  22070.84011326  .00001521  00000-0  12098-3 0  9998","LAUNCH_DATE":"2020-10-06","MEAN_MOTION_DOT":"0.00001521","SEMIMAJOR_AXIS":"6925.334","PERIAPSIS":"546.219"},{"ELEMENT_SET_NO":"999","CLASSIFICATION_TYPE":"U","ECCENTRICITY":"0.00018180","OBJECT_TYPE":"PAYLOAD","RCS_SIZE":"LARGE","MEAN_ELEMENT_THEORY":"SGP4","MEAN_MOTION_DDOT":"0.0000000000000","REV_AT_EPOCH":"7984","DECAY_DATE":null,"EPOCH":"2022-03-11T21:13:27.499584","EPHEMERIS_TYPE":"0","COUNTRY_CODE":"US","ARG_OF_PERICENTER":"65.2464","TIME_SYSTEM":"UTC","NORAD_CAT_ID":"46580","TLE_LINE1":"1 46580U 20070BA  22070.88434606  .00004310  00000-0  30798-3 0  9990","MEAN_MOTION":"15.06409000","PERIAPSIS":"545.927","SEMIMAJOR_AXIS":"6925.321","LAUNCH_DATE":"2020-10-06","MEAN_MOTION_DOT":"0.00004310","SITE":"AFETR","REF_FRAME":"TEME","RA_OF_ASC_NODE":"230.4422","INCLINATION":"53.0531","OBJECT_ID":"2020-070BA","MEAN_ANOMALY":"294.8714","OBJECT_NAME":"STARLINK-1708","FILE":"3355378","TLE_LINE2":"2 46580  53.0531 230.4422 0001818  65.2464 294.8714 15.06409000 79842","BSTAR":"0.00030798000000","PERIOD":"95.592","CENTER_NAME":"EARTH","GP_ID":"198519316","APOAPSIS":"548.445"},{"COUNTRY_CODE":"US","TIME_SYSTEM":"UTC","ARG_OF_PERICENTER":"66.7602","NORAD_CAT_ID":"46581","EPOCH":"2022-03-11T17:12:36.608832","EPHEMERIS_TYPE":"0","DECAY_DATE":null,"MEAN_MOTION_DDOT":"0.0000000000000","REV_AT_EPOCH":"7988","RCS_SIZE":"LARGE","MEAN_ELEMENT_THEORY":"SGP4","ECCENTRICITY":"0.00013400","OBJECT_TYPE":"PAYLOAD","ELEMENT_SET_NO":"999","CLASSIFICATION_TYPE":"U","PERIOD":"95.591","TLE_LINE2":"2 46581  53.0557 226.2022 0001340  66.7602 293.3528 15.06420917 79881","BSTAR":"0.00035418000000","GP_ID":"198518564","CENTER_NAME":"EARTH","APOAPSIS":"548.077","OBJECT_ID":"2020-070BB","MEAN_ANOMALY":"293.3528","OBJECT_NAME":"STARLINK-1712","FILE":"3355378","REF_FRAME":"TEME","RA_OF_ASC_NODE":"226.2022","INCLINATION":"53.0557","SITE":"AFETR","LAUNCH_DATE":"2020-10-06","MEAN_MOTION_DOT":"0.00005001","PERIAPSIS":"546.221","SEMIMAJOR_AXIS":"6925.284","TLE_LINE1":"1 46581U 20070BB  22070.71709038  .00005001  00000-0  35418-3 0  9999","MEAN_MOTION":"15.06420917"},{"MEAN_MOTION_DDOT":"0.0000000000000","REV_AT_EPOCH":"7988","RCS_SIZE":"LARGE","MEAN_ELEMENT_THEORY":"SGP4","ECCENTRICITY":"0.00011890","OBJECT_TYPE":"PAYLOAD","ELEMENT_SET_NO":"999","CLASSIFICATION_TYPE":"U","ARG_OF_PERICENTER":"77.8221","TIME_SYSTEM":"UTC","COUNTRY_CODE":"US","NORAD_CAT_ID":"46582","EPOCH":"2022-03-11T16:51:23.328576","EPHEMERIS_TYPE":"0","DECAY_DATE":null,"MEAN_MOTION_DOT":"0.00003967","LAUNCH_DATE":"2020-10-06","SEMIMAJOR_AXIS":"6925.319","PERIAPSIS":"546.360","TLE_LINE1":"1 46582U 20070BC  22070.70235334  .00003967  00000-0  28500-3 0  9995","MEAN_MOTION":"15.06409699","GP_ID":"198518814","CENTER_NAME":"EARTH","TLE_LINE2":"2 46582  53.0584 226.2361 0001189  77.8221 282.2901 15.06409699 79885","BSTAR":"0.00028500000000","PERIOD":"95.592","APOAPSIS":"548.007","OBJECT_ID":"2020-070BC","OBJECT_NAME":"STARLINK-1728","FILE":"3355378","MEAN_ANOMALY":"282.2901","INCLINATION":"53.0584","REF_FRAME":"TEME","RA_OF_ASC_NODE":"226.2361","SITE":"AFETR"},{"PERIAPSIS":"546.161","SEMIMAJOR_AXIS":"6925.325","LAUNCH_DATE":"2020-10-06","MEAN_MOTION_DOT":"0.00004001","MEAN_MOTION":"15.06407638","TLE_LINE1":"1 46583U 20070BD  22070.75211480  .00004001  00000-0  28726-3 0  9997","OBJECT_ID":"2020-070BD","MEAN_ANOMALY":"280.6972","FILE":"3355378","OBJECT_NAME":"STARLINK-1729","TLE_LINE2":"2 46583  53.0526 246.0362 0001486  79.4184 280.6972 15.06407638 79600","PERIOD":"95.592","BSTAR":"0.00028726000000","CENTER_NAME":"EARTH","GP_ID":"198519066","APOAPSIS":"548.219","SITE":"AFETR","RA_OF_ASC_NODE":"246.0362","REF_FRAME":"TEME","INCLINATION":"53.0526","MEAN_ELEMENT_THEORY":"SGP4","RCS_SIZE":"LARGE","MEAN_MOTION_DDOT":"0.0000000000000","REV_AT_EPOCH":"7960","ELEMENT_SET_NO":"999","CLASSIFICATION_TYPE":"U","ECCENTRICITY":"0.00014860","OBJECT_TYPE":"PAYLOAD","COUNTRY_CODE":"US","ARG_OF_PERICENTER":"79.4184","TIME_SYSTEM":"UTC","NORAD_CAT_ID":"46583","DECAY_DATE":null,"EPOCH":"2022-03-11T18:03:02.718720","EPHEMERIS_TYPE":"0"}];
